{
  "type": "FeatureCollection",
  "features": [
    {
      "type": "Feature",
      "properties": {
        "gaul0_code": 325,
        "gaul0_name": "Portugal",
        "gaul1_code": -3728,
        "gaul1_name": "Ilha de Santa Maria",
        "gaul2_code": -3728,
        "gaul2_name": "Ilha de Santa Maria",
        "iso3_code": "PRT",
        "source": "natural_earth_10m_supplement"
      },
      "geometry": {
        "type": "Polygon",
        "coordinates": [
          [
            [
              -25.066802537999934,
              37.021470445000034
            ],
            [
              -25.04674231699994,
              37.01072825700004
            ],
            [
              -25.02920488199993,
              36.99237702000005
            ],
            [
              -25.016916469999956,
              36.97044505400004
            ],
            [
              -25.012196417999917,
              36.949204820000034
            ],
            [
              -25.027088995999918,
              36.93431224200009
            ],
            [
              -25.060658331999946,
              36.93724192900004
            ],
            [
              -25.11900794199994,
              36.95262278900009
            ],
            [
              -25.151722785999937,
              36.94586823100008
            ],
            [
              -25.169097459999932,
              36.94599030200004
            ],
            [
              -25.176665818999936,
              36.95604075700004
            ],
            [
              -25.183216925999943,
              36.96889883000006
            ],
            [
              -25.195301886999914,
              36.980169989000046
            ],
            [
              -25.201649542999917,
              36.99042389500005
            ],
            [
              -25.19098873599995,
              37.000433661000045
            ],
            [
              -25.170318162999934,
              37.01552969000005
            ],
            [
              -25.133615688999953,
              37.02301666900007
            ],
            [
              -25.094471808999913,
              37.02448151200008
            ],
            [
              -25.066802537999934,
              37.021470445000034
            ]
          ]
        ]
      }
    },
    {
      "type": "Feature",
      "properties": {
        "gaul0_code": 325,
        "gaul0_name": "Portugal",
        "gaul1_code": -3727,
        "gaul1_name": "Ilha de S\u00e3o Miguel",
        "gaul2_code": -3727,
        "gaul2_name": "Ilha de S\u00e3o Miguel",
        "iso3_code": "PRT",
        "source": "natural_earth_10m_supplement"
      },
      "geometry": {
        "type": "Polygon",
        "coordinates": [
          [
            [
              -25.197824673999946,
              37.86440664300005
            ],
            [
              -25.15916907499991,
              37.85203685100004
            ],
            [
              -25.135161912999934,
              37.822333075000074
            ],
            [
              -25.13231360599991,
              37.78620026200008
            ],
            [
              -25.156849738999938,
              37.75454336100006
            ],
            [
              -25.19473222599993,
              37.74070872600004
            ],
            [
              -25.32754472599993,
              37.72724030200004
            ],
            [
              -25.372425910999937,
              37.71743398600006
            ],
            [
              -25.420318162999934,
              37.71356842700004
            ],
            [
              -25.465443488999938,
              37.71539948100008
            ],
            [
              -25.488270636999914,
              37.71369049700007
            ],
            [
              -25.505686001999948,
              37.706732489000046
            ],
            [
              -25.53270423099991,
              37.72011953300006
            ],
            [
              -25.559071417999917,
              37.72907135600008
            ],
            [
              -25.61554928299995,
              37.74091217700004
            ],
            [
              -25.704253709999932,
              37.74404531500005
            ],
            [
              -25.825062628999945,
              37.81541575700004
            ],
            [
              -25.859486456999946,
              37.85390859600005
            ],
            [
              -25.841460740999935,
              37.90599192900004
            ],
            [
              -25.764556443999936,
              37.91156647300005
            ],
            [
              -25.739084438999953,
              37.90599192900004
            ],
            [
              -25.70421301999994,
              37.88263580900008
            ],
            [
              -25.698109503999945,
              37.874335028000075
            ],
            [
              -25.69717363199993,
              37.862534898000035
            ],
            [
              -25.694203253999945,
              37.85268789300005
            ],
            [
              -25.688832160999937,
              37.84585195500006
            ],
            [
              -25.68073482999995,
              37.84332916900007
            ],
            [
              -25.55378170499995,
              37.82965729400007
            ],
            [
              -25.538889126999948,
              37.83295319200005
            ],
            [
              -25.512562628999945,
              37.84747955900008
            ],
            [
              -25.498890753999945,
              37.850775458000044
            ],
            [
              -25.489857550999943,
              37.84804922100005
            ],
            [
              -25.468861456999946,
              37.83466217700004
            ],
            [
              -25.45848548099991,
              37.82965729400007
            ],
            [
              -25.44204667899993,
              37.83730703300006
            ],
            [
              -25.33975175699993,
              37.86180247600004
            ],
            [
              -25.197824673999946,
              37.86440664300005
            ]
          ]
        ]
      }
    },
    {
      "type": "Feature",
      "properties": {
        "gaul0_code": 325,
        "gaul0_name": "Portugal",
        "gaul1_code": -3729,
        "gaul1_name": "Ilha das Flores",
        "gaul2_code": -3729,
        "gaul2_name": "Ilha das Flores",
        "iso3_code": "PRT",
        "source": "natural_earth_10m_supplement"
      },
      "geometry": {
        "type": "Polygon",
        "coordinates": [
          [
            [
              -31.207915818999936,
              39.50861237200007
            ],
            [
              -31.198557094999956,
              39.50218333500004
            ],
            [
              -31.186268683999913,
              39.49664948100008
            ],
            [
              -31.172718878999945,
              39.495347398000035
            ],
            [
              -31.159535285999937,
              39.50177643400008
            ],
            [
              -31.140736456999946,
              39.48273346600007
            ],
            [
              -31.13267981699994,
              39.46552155200004
            ],
            [
              -31.131581183999913,
              39.42300039300005
            ],
            [
              -31.139027472999942,
              39.40029531500005
            ],
            [
              -31.156646287999934,
              39.37262604400007
            ],
            [
              -31.17723548099991,
              39.35561758000006
            ],
            [
              -31.19367428299995,
              39.36465078300006
            ],
            [
              -31.212513800999943,
              39.35773346600007
            ],
            [
              -31.234445766999954,
              39.35569896000004
            ],
            [
              -31.254750128999945,
              39.35809967700004
            ],
            [
              -31.268788214999915,
              39.36465078300006
            ],
            [
              -31.278146938999953,
              39.37840403900009
            ],
            [
              -31.28465735599991,
              39.39789459800005
            ],
            [
              -31.284901495999918,
              39.41616445500006
            ],
            [
              -31.27562415299991,
              39.42609284100007
            ],
            [
              -31.280913865999935,
              39.44310130400004
            ],
            [
              -31.27562415299991,
              39.457098700000074
            ],
            [
              -31.26707923099991,
              39.47207265800006
            ],
            [
              -31.262562628999945,
              39.491888739000046
            ],
            [
              -31.25576738199993,
              39.507473049000055
            ],
            [
              -31.23932857999995,
              39.517564195000034
            ],
            [
              -31.21898352799991,
              39.52240631700005
            ],
            [
              -31.200510219999956,
              39.52220286700009
            ],
            [
              -31.207915818999936,
              39.50861237200007
            ]
          ]
        ]
      }
    },
    {
      "type": "Feature",
      "properties": {
        "gaul0_code": 325,
        "gaul0_name": "Portugal",
        "gaul1_code": -3730,
        "gaul1_name": "Ilha do Corvo",
        "gaul2_code": -3730,
        "gaul2_name": "Ilha do Corvo",
        "iso3_code": "PRT",
        "source": "natural_earth_10m_supplement"
      },
      "geometry": {
        "type": "Polygon",
        "coordinates": [
          [
            [
              -31.117298956999946,
              39.72833893400008
            ],
            [
              -31.08267167899993,
              39.722723700000074
            ],
            [
              -31.080230272999927,
              39.69330475500004
            ],
            [
              -31.099964972999942,
              39.66400788000004
            ],
            [
              -31.131581183999913,
              39.65884023600006
            ],
            [
              -31.13304602799991,
              39.665350653000075
            ],
            [
              -31.148915167999917,
              39.69635651200008
            ],
            [
              -31.152699347999942,
              39.70107656500005
            ],
            [
              -31.149647589999915,
              39.71149323100008
            ],
            [
              -31.141102667999917,
              39.72089264500005
            ],
            [
              -31.129383917999917,
              39.72711823100008
            ],
            [
              -31.117298956999946,
              39.72833893400008
            ]
          ]
        ]
      }
    }
  ]
}